[{"OBJECT_NAME":"SURCAL 159","OBJECT_ID":"1967-053F","EPOCH":"2026-03-09T19:37:22.733472","MEAN_MOTION":13.99575786,"ECCENTRICITY":0.00094656,"INCLINATION":69.9733,"RA_OF_ASC_NODE":214.7987,"ARG_OF_PERICENTER":251.1876,"MEAN_ANOMALY":108.8205,"EPHEMERIS_TYPE":0,"CLASSIFICATION_TYPE":"U","NORAD_CAT_ID":2872,"ELEMENT_SET_NO":999,"REV_AT_EPOCH":99630,"BSTAR":0.00015093287,"MEAN_MOTION_DOT":1.67e-6,"MEAN_MOTION_DDOT":0},{"OBJECT_NAME":"NOAA 16 DEB","OBJECT_ID":"2000-055AN","EPOCH":"2026-03-09T19:36:04.938912","MEAN_MOTION":13.84114128,"ECCENTRICITY":0.0142483,"INCLINATION":99.1063,"RA_OF_ASC_NODE":14.0616,"ARG_OF_PERICENTER":294.7563,"MEAN_ANOMALY":63.8822,"EPHEMERIS_TYPE":0,"CLASSIFICATION_TYPE":"U","NORAD_CAT_ID":41079,"ELEMENT_SET_NO":999,"REV_AT_EPOCH":51871,"BSTAR":0.00058969171,"MEAN_MOTION_DOT":6.66e-6,"MEAN_MOTION_DDOT":0}]
